{
  "norad_id": 67031,
  "name": "STARLINK-36150",
  "history": [
    {
      "epoch": "2026-03-28T21:49:12.912672Z",
      "apogee_km": 484.1115606554886,
      "perigee_km": 481.774676767056,
      "latitude_deg": 1.445521780662698e-05,
      "longitude_deg": 135.47155071685387,
      "height_km": 482.7883361931009,
      "semi_major_axis_km": 6861.080118711272,
      "eccentricity": 0.0001703,
      "inclination_deg": 42.9989,
      "raan_deg": 289.0982,
      "arg_perigee_deg": 266.6435,
      "mean_anomaly_deg": 93.4222,
      "mean_motion_rev_day": 15.27615393
    },
    {
      "epoch": "2026-03-28T21:49:12.913536Z",
      "apogee_km": 484.111492044688,
      "perigee_km": 481.77474537785656,
      "latitude_deg": 1.3661140811705849e-05,
      "longitude_deg": 135.471646260139,
      "height_km": 482.78833217746416,
      "semi_major_axis_km": 6861.080118711272,
      "eccentricity": 0.00017029,
      "inclination_deg": 42.9989,
      "raan_deg": 289.0983,
      "arg_perigee_deg": 266.6435,
      "mean_anomaly_deg": 93.4222,
      "mean_motion_rev_day": 15.27615393
    },
    {
      "epoch": "2026-03-29T21:21:33.820128Z",
      "apogee_km": 484.3434228752976,
      "perigee_km": 481.6744371085306,
      "latitude_deg": 1.681278815128852e-05,
      "longitude_deg": 135.87852107826168,
      "height_km": 482.60545721590796,
      "semi_major_axis_km": 6861.145929991913,
      "eccentricity": 0.0001945,
      "inclination_deg": 43.001,
      "raan_deg": 283.559,
      "arg_perigee_deg": 277.7833,
      "mean_anomaly_deg": 82.2798,
      "mean_motion_rev_day": 15.27593414
    },
    {
      "epoch": "2026-03-30T05:12:20.884032Z",
      "apogee_km": 484.0467864851453,
      "perigee_km": 481.9776011112808,
      "latitude_deg": 6.997049733761195e-06,
      "longitude_deg": 16.013170847147112,
      "height_km": 482.5640142748842,
      "semi_major_axis_km": 6861.149193798213,
      "eccentricity": 0.00015079,
      "inclination_deg": 43.0,
      "raan_deg": 281.712,
      "arg_perigee_deg": 282.5592,
      "mean_anomaly_deg": 77.5091,
      "mean_motion_rev_day": 15.27592324
    }
  ]
}